[{"OBJECT_NAME":"KUIPER-00173","OBJECT_ID":"2025-217AA","EPOCH":"2026-03-09T22:00:01.999584","MEAN_MOTION":14.7640598,"ECCENTRICITY":9.222e-5,"INCLINATION":51.9019,"RA_OF_ASC_NODE":31.4046,"ARG_OF_PERICENTER":130.9471,"MEAN_ANOMALY":336.5059,"EPHEMERIS_TYPE":0,"CLASSIFICATION_TYPE":"U","NORAD_CAT_ID":65786,"ELEMENT_SET_NO":999,"REV_AT_EPOCH":568,"BSTAR":0.00099113662,"MEAN_MOTION_DOT":6.744e-5,"MEAN_MOTION_DDOT":0},{"OBJECT_NAME":"FENGYUN 1C DEB","OBJECT_ID":"1999-025ECZ","EPOCH":"2026-03-06T15:56:09.405600","MEAN_MOTION":14.4183664,"ECCENTRICITY":0.02789031,"INCLINATION":98.8006,"RA_OF_ASC_NODE":17.7433,"ARG_OF_PERICENTER":114.6839,"MEAN_ANOMALY":248.3662,"EPHEMERIS_TYPE":0,"CLASSIFICATION_TYPE":"U","NORAD_CAT_ID":37017,"ELEMENT_SET_NO":999,"REV_AT_EPOCH":62370,"BSTAR":0.0010503478,"MEAN_MOTION_DOT":5.43e-5,"MEAN_MOTION_DDOT":0}]
